*******************************************************************************
Ephemeris / WWW_USER Tue Mar 11 05:37:30 2025 Pasadena, USA      / Horizons    
*******************************************************************************
Target body name: (2018 RB1)                      {source: JPL#5}
Center body name: Earth (399)                     {source: DE441}
Center-site name: Gemini South Obs., Cerro Pachon
*******************************************************************************
Start time      : A.D. 2018-Aug-27 22:33:00.0000 UT      
Stop  time      : A.D. 2018-Aug-28 10:54:00.0000 UT      
Step-size       : 1 minutes
*******************************************************************************
Target pole/equ : undefined
Target radii    : undefined                                                    
Center geodetic : 289.2634, -30.2406227, 2.71233  {E-lon(deg),Lat(deg),Alt(km)}
Center cylindric: 289.2634,5517.21435,-3194.81213 {E-lon(deg),Dxy(km),Dz(km)}
Center pole/equ : ITRF93                          {East-longitude positive}
Center radii    : 6378.137, 6378.137, 6356.752 km {Equator_a, b, pole_c}       
Target primary  : Sun
Vis. interferer : MOON (R_eq= 1737.400) km        {source: DE441}
Rel. light bend : Sun                             {source: DE441}
Rel. lght bnd GM: 1.3271E+11 km^3/s^2                                          
Small-body perts: Yes                             {source: SB441-N16}
Atmos refraction: NO (AIRLESS)
RA format       : HMS
Time format     : CAL 
Calendar mode   : Mixed Julian/Gregorian
RTS-only print  : NO       
EOP file        : eop.250310.p250606                                           
EOP coverage    : DATA-BASED 1962-JAN-20 TO 2025-MAR-10. PREDICTS-> 2025-JUN-05
Units conversion: 1 au= 149597870.700 km, c= 299792.458 km/s, 1 day= 86400.0 s 
Table cut-offs 1: Elevation (-90.0deg=NO ),Airmass (>38.000=NO), Daylight (YES)
Table cut-offs 2: Solar elongation (  0.0,180.0=NO ),Local Hour Angle( 0.0=NO )
Table cut-offs 3: RA/DEC angular rate (     0.0=NO )                           
*******************************************************************************
Initial IAU76/J2000 heliocentric ecliptic osculating elements (au, days, deg.):
  EPOCH=  2458368.5 ! 2018-Sep-07.00 (TDB)         Residual RMS= .299          
   EC= .2816093255492492   QR= .7991213126369837   TP= 2458438.7854507864      
   OM= 166.9631715555783   W=  267.8210074013559   IN= 5.127543488636634       
  Equivalent ICRF heliocentric cartesian coordinates (au, au/d):
   X= 9.883258176612897E-01  Y=-2.654573099408967E-01  Z=-1.095366816313374E-01
  VX= 1.112505236628486E-04 VY= 1.667631342697191E-02 VZ= 5.559084906068471E-03
Asteroid physical parameters (km, seconds, rotational period in hours):        
   GM= n.a.                RAD= n.a.               ROTPER= n.a.                
   H= 27.9                 G= .150                 B-V= n.a.                   
                           ALBEDO= n.a.            STYP= n.a.                  
*******************************************************************************
 Date__(UT)__HR:MN     R.A._________(ICRF)_________DEC
******************************************************
$$SOE
 2018-Aug-28 06:45  m  22 25 21.575729 +08 17 56.63377
 2018-Aug-28 06:46  m  22 25 21.500654 +08 17 56.11844
 2018-Aug-28 06:47  m  22 25 21.425646 +08 17 55.60277
 2018-Aug-28 06:48  m  22 25 21.350704 +08 17 55.08675
 2018-Aug-28 06:49  m  22 25 21.275829 +08 17 54.57040
 2018-Aug-28 06:50  m  22 25 21.201021 +08 17 54.05371
 2018-Aug-28 06:51  m  22 25 21.126281 +08 17 53.53668
 2018-Aug-28 06:52  m  22 25 21.051610 +08 17 53.01931
 2018-Aug-28 06:53  m  22 25 20.977008 +08 17 52.50161
 2018-Aug-28 06:54  m  22 25 20.902475 +08 17 51.98357
 2018-Aug-28 06:55  m  22 25 20.828013 +08 17 51.46519
 2018-Aug-28 06:56  m  22 25 20.753621 +08 17 50.94648
 2018-Aug-28 06:57  m  22 25 20.679301 +08 17 50.42743
 2018-Aug-28 06:58  m  22 25 20.605053 +08 17 49.90805
 2018-Aug-28 06:59  m  22 25 20.530876 +08 17 49.38834
 2018-Aug-28 07:00  m  22 25 20.456773 +08 17 48.86830
 2018-Aug-28 07:01  m  22 25 20.382743 +08 17 48.34793
 2018-Aug-28 07:02  m  22 25 20.308787 +08 17 47.82722
 2018-Aug-28 07:03  m  22 25 20.234906 +08 17 47.30619
 2018-Aug-28 07:04  m  22 25 20.161099 +08 17 46.78482
 2018-Aug-28 07:05  m  22 25 20.087368 +08 17 46.26313
 2018-Aug-28 07:06  m  22 25 20.013713 +08 17 45.74111
 2018-Aug-28 07:07  m  22 25 19.940135 +08 17 45.21877
 2018-Aug-28 07:08  m  22 25 19.866633 +08 17 44.69610
 2018-Aug-28 07:09  m  22 25 19.793210 +08 17 44.17310
 2018-Aug-28 07:10  m  22 25 19.719864 +08 17 43.64978
 2018-Aug-28 07:11  m  22 25 19.646597 +08 17 43.12614
 2018-Aug-28 07:12  m  22 25 19.573409 +08 17 42.60217
 2018-Aug-28 07:13  m  22 25 19.500301 +08 17 42.07788
 2018-Aug-28 07:14  m  22 25 19.427273 +08 17 41.55327
 2018-Aug-28 07:15  m  22 25 19.354326 +08 17 41.02834
 2018-Aug-28 07:16  m  22 25 19.281460 +08 17 40.50309
 2018-Aug-28 07:17  m  22 25 19.208676 +08 17 39.97752
 2018-Aug-28 07:18  m  22 25 19.135974 +08 17 39.45163
 2018-Aug-28 07:19  m  22 25 19.063355 +08 17 38.92542
 2018-Aug-28 07:20  m  22 25 18.990819 +08 17 38.39890
 2018-Aug-28 07:21  m  22 25 18.918366 +08 17 37.87206
 2018-Aug-28 07:22  m  22 25 18.845998 +08 17 37.34491
 2018-Aug-28 07:23  m  22 25 18.773715 +08 17 36.81744
 2018-Aug-28 07:24  m  22 25 18.701517 +08 17 36.28967
 2018-Aug-28 07:25  m  22 25 18.629405 +08 17 35.76157
 2018-Aug-28 07:26  m  22 25 18.557378 +08 17 35.23317
 2018-Aug-28 07:27  m  22 25 18.485439 +08 17 34.70446
 2018-Aug-28 07:28  m  22 25 18.413587 +08 17 34.17543
 2018-Aug-28 07:29  m  22 25 18.341822 +08 17 33.64610
 2018-Aug-28 07:30  m  22 25 18.270146 +08 17 33.11646
 2018-Aug-28 07:31  m  22 25 18.198558 +08 17 32.58652
 2018-Aug-28 07:32  m  22 25 18.127060 +08 17 32.05626
 2018-Aug-28 07:33  m  22 25 18.055651 +08 17 31.52570
 2018-Aug-28 07:34  m  22 25 17.984332 +08 17 30.99484
 2018-Aug-28 07:35  m  22 25 17.913104 +08 17 30.46367
 2018-Aug-28 07:36  m  22 25 17.841967 +08 17 29.93220
 2018-Aug-28 07:37  m  22 25 17.770921 +08 17 29.40043
 2018-Aug-28 07:38  m  22 25 17.699968 +08 17 28.86836
 2018-Aug-28 07:39  m  22 25 17.629107 +08 17 28.33599
 2018-Aug-28 07:40  m  22 25 17.558339 +08 17 27.80332
 2018-Aug-28 07:41  m  22 25 17.487664 +08 17 27.27035
 2018-Aug-28 07:42  m  22 25 17.417083 +08 17 26.73708
 2018-Aug-28 07:43  m  22 25 17.346597 +08 17 26.20352
 2018-Aug-28 07:44  m  22 25 17.276205 +08 17 25.66966
 2018-Aug-28 07:45  m  22 25 17.205909 +08 17 25.13551
 2018-Aug-28 07:46  m  22 25 17.135708 +08 17 24.60106
 2018-Aug-28 07:47  m  22 25 17.065604 +08 17 24.06632
 2018-Aug-28 07:48  m  22 25 16.995596 +08 17 23.53129
 2018-Aug-28 07:49  m  22 25 16.925685 +08 17 22.99597
 2018-Aug-28 07:50  m  22 25 16.855872 +08 17 22.46036
 2018-Aug-28 07:51  m  22 25 16.786157 +08 17 21.92446
 2018-Aug-28 07:52  m  22 25 16.716540 +08 17 21.38827
 2018-Aug-28 07:53  m  22 25 16.647022 +08 17 20.85180
 2018-Aug-28 07:54  m  22 25 16.577603 +08 17 20.31504
 2018-Aug-28 07:55  m  22 25 16.508285 +08 17 19.77799
 2018-Aug-28 07:56  m  22 25 16.439066 +08 17 19.24066
 2018-Aug-28 07:57  m  22 25 16.369948 +08 17 18.70305
 2018-Aug-28 07:58  m  22 25 16.300931 +08 17 18.16516
 2018-Aug-28 07:59  m  22 25 16.232016 +08 17 17.62698
 2018-Aug-28 08:00  m  22 25 16.163202 +08 17 17.08853
 2018-Aug-28 08:01  m  22 25 16.094491 +08 17 16.54980
 2018-Aug-28 08:02  m  22 25 16.025883 +08 17 16.01078
 2018-Aug-28 08:03  m  22 25 15.957378 +08 17 15.47150
 2018-Aug-28 08:04  m  22 25 15.888976 +08 17 14.93193
 2018-Aug-28 08:05  m  22 25 15.820679 +08 17 14.39209
 2018-Aug-28 08:06  m  22 25 15.752486 +08 17 13.85198
 2018-Aug-28 08:07  m  22 25 15.684398 +08 17 13.31159
 2018-Aug-28 08:08  m  22 25 15.616415 +08 17 12.77094
 2018-Aug-28 08:09  m  22 25 15.548539 +08 17 12.23001
 2018-Aug-28 08:10  m  22 25 15.480768 +08 17 11.68881
 2018-Aug-28 08:11  m  22 25 15.413103 +08 17 11.14734
 2018-Aug-28 08:12  m  22 25 15.345546 +08 17 10.60561
 2018-Aug-28 08:13  m  22 25 15.278096 +08 17 10.06361
 2018-Aug-28 08:14  m  22 25 15.210754 +08 17 09.52134
 2018-Aug-28 08:15  m  22 25 15.143520 +08 17 08.97881
 2018-Aug-28 08:16  m  22 25 15.076394 +08 17 08.43601
 2018-Aug-28 08:17  m  22 25 15.009377 +08 17 07.89296
 2018-Aug-28 08:18  m  22 25 14.942470 +08 17 07.34964
 2018-Aug-28 08:19  m  22 25 14.875673 +08 17 06.80606
 2018-Aug-28 08:20  m  22 25 14.808985 +08 17 06.26222
 2018-Aug-28 08:21  m  22 25 14.742408 +08 17 05.71813
 2018-Aug-28 08:22  m  22 25 14.675942 +08 17 05.17377
 2018-Aug-28 08:23  m  22 25 14.609587 +08 17 04.62916
 2018-Aug-28 08:24  m  22 25 14.543344 +08 17 04.08430
 2018-Aug-28 08:25  m  22 25 14.477213 +08 17 03.53918
 2018-Aug-28 08:26  m  22 25 14.411194 +08 17 02.99381
 2018-Aug-28 08:27  m  22 25 14.345288 +08 17 02.44819
 2018-Aug-28 08:28  m  22 25 14.279496 +08 17 01.90232
 2018-Aug-28 08:29  m  22 25 14.213816 +08 17 01.35620
 2018-Aug-28 08:30  m  22 25 14.148251 +08 17 00.80983
 2018-Aug-28 08:31  m  22 25 14.082800 +08 17 00.26321
 2018-Aug-28 08:32  m  22 25 14.017463 +08 16 59.71635
 2018-Aug-28 08:33  m  22 25 13.952242 +08 16 59.16924
 2018-Aug-28 08:34  m  22 25 13.887135 +08 16 58.62189
 2018-Aug-28 08:35  m  22 25 13.822145 +08 16 58.07430
 2018-Aug-28 08:36  m  22 25 13.757270 +08 16 57.52646
 2018-Aug-28 08:37  m  22 25 13.692512 +08 16 56.97839
 2018-Aug-28 08:38  m  22 25 13.627871 +08 16 56.43007
 2018-Aug-28 08:39  m  22 25 13.563346 +08 16 55.88152
 2018-Aug-28 08:40  m  22 25 13.498939 +08 16 55.33273
 2018-Aug-28 08:41  m  22 25 13.434650 +08 16 54.78370
 2018-Aug-28 08:42  m  22 25 13.370479 +08 16 54.23444
 2018-Aug-28 08:43  m  22 25 13.306427 +08 16 53.68495
 2018-Aug-28 08:44  m  22 25 13.242493 +08 16 53.13522
 2018-Aug-28 08:45  m  22 25 13.178678 +08 16 52.58527
 2018-Aug-28 08:46  m  22 25 13.114983 +08 16 52.03508
 2018-Aug-28 08:47  m  22 25 13.051408 +08 16 51.48466
